#dP2019  1  3  0  0  0.00000000      96 __u+U IGS08 FIT  IAC
## 2034 345600.00000000   900.00000000 58486 0.0000000000000
+   96   C01C02C03C04C05C06C07C08C09C10C11C12C13C14C30C32E01
+        E02E03E04E05E07E08E09E11E12E13E14E15E18E19E21E24E25
+        E26E27E30E31E33E36G01G02G03G05G06G07G08G09G10G11G12
+        G13G14G15G16G17G18G19G20G21G22G23G24G25G26G27G28G29
+        G30G31G32J01J02J03R01R02R03R04R05R07R08R09R10R11R13
+        R14R15R17R18R19R20R21R22R23R24R26  0  0  0  0  0  0
++        12 12 12 12 12  8  9  8  8  9  8  7  8  7  0 15  5
++         5  5  5  5  5  5  6  5  5  6  6  6  5  5  6  5  5
++         5  5  6  5  5  6  3  3  3  3  3  3  3  3  3  3  3
++         3  3  3  3  3  4  3  3  3  3  3  3  3  3  3  3  3
++         3  3  3  8 10 10  5  5  5  5  5  5  5  5  8  5  5
++         5  5  5  5  5  5  5  5  5  5  8  0  0  0  0  0  0
%c M  cc GPS ccc cccc cccc cccc cccc ccccc ccccc ccccc ccccc
%c cc cc ccc ccc cccc cccc cccc cccc ccccc ccccc ccccc ccccc
%f  1.2500000  1.025000000  0.00000000000  0.000000000000000
%f  0.0000000  0.000000000  0.00000000000  0.000000000000000
%i    0    0    0    0      0      0      0      0         0
%i    0    0    0    0      0      0      0      0         0
/* INFORMATION & ANALYSIS CENTER (IAC)            FINAL DATA
/* S/V CLOCKS ARE ALIGNED TO GPS & GLONASS TIME RESPECTIVELY
/* USING THE BROADCAST EPHEMERIS                            
/* PCV:IGS14_2029 OL/AL:FES2004  NONE     YN ORB:CoN CLK:CoN
*  2019 01 03 22 45  0.00000000
PC01 -32290.225891  27086.211607   -527.385053 999999.999999
PC02   4429.562214  41934.248548   1121.979396   -219.150407
PC03 -14787.772128  39528.788602     42.474127    -95.133943
PC04 -39615.554600  14358.767890   -184.452018   -228.872784
PC05  21902.385097  36026.240282   1300.717566    -25.270042
PC06 -16035.853550  38177.604106   9160.069974    230.395777
PC07 -10636.119017  24074.752267 -32765.622566    218.581791
PC08 -22224.496824  23957.872440  26587.218178     80.097374
PC09  -7390.213535  41239.436269  -5926.657095    420.460630
PC10   5283.733278  31519.717296 -27169.642118   -377.562366
PC11  21057.470325 -16793.646474   7494.711774    -75.098368
PC12  13035.137922   8443.085688  23258.116676    320.824365
PC13  -9725.357047  25630.533869  32006.454345   -464.986238
PC14  16925.941937    960.916196 -22122.090743    629.630379
PC30      0.000000      0.000000      0.000000 999999.999999
PC32 -16528.887439 -18538.132342  12732.602777 999999.999999
PE01 -22282.871445 -18547.211160   5965.291590   -513.165896
PE02  22321.262723  18530.671310  -5914.381844     41.855543
PE03  11675.150649  20836.515695 -17482.571757   -118.183069
PE04 -17170.787575    -30.657547  24107.502809   -192.667967
PE05   -704.721410  29586.440295   -562.717949    131.192650
PE07  12626.189240 -20990.621457 -16624.055541   -105.931866
PE08  17031.970767   -217.526563 -24212.238989   6430.445316
PE09 -12346.155738  21084.746491  16697.397937   6568.871869
PE11 -22765.927525  17615.085463   6930.073567   5718.905726
PE12 -26489.213878   5115.614855 -12182.653619   5863.463063
PE13  22779.378023 -17641.697146  -6776.979359    381.297472
PE14 -10317.770572  24980.300708   2694.002055   6465.172143
PE15  26527.876579  -5560.234334  11912.928618    923.935606
PE18  -2006.879792 -25237.384630 -16594.642494   5633.004145
PE19 -10604.566121 -22414.664004  16157.204675     -9.395258
PE21  -5196.255001 -19774.774178  21404.221830   -512.658702
PE24 -14335.250130   9686.109315 -24021.082760   6304.448600
PE25   5165.820854  19763.919180 -21415.072323   1934.483227
PE26   5913.996130 -19548.942980 -21418.872431   5060.390899
PE27  14780.091635  -9293.925854  23910.033994    556.934690
PE30  25927.873616   6367.029929  12792.511952   5217.097298
PE31 -26054.074590  -6628.611148 -12377.124261    941.736782
PE33 -14780.300969  -9800.615815 -23686.681443 999999.999999
PE36  -5659.877617  19448.221847  21595.819319    763.851174
PG01  -8429.966218 -13683.513386 -21368.464513   -139.462703
PG02 -15042.658924  14681.150419  16709.117947   -103.588854
PG03 -12542.438622 -22909.616552  -5062.873235    174.717799
PG05  -4133.064884  17392.418312  19458.684243      0.670562
PG06 -24843.897953   7137.424268   6200.837576    303.882608
PG07 -22049.046625  -7393.762987  13484.095420     58.332029
PG08   4895.576061 -24903.952394  -7456.173766   -127.848633
PG09 -11894.405654 -10643.287641  21181.244306    475.921188
PG10  18812.793138   3814.674918 -18391.495549    141.489832
PG11  -3074.694454 -17061.267195 -20700.991956   -680.176109
PG12   9073.732778  23841.940505  -7925.525026    279.238717
PG13 -12455.401529  23389.635921  -1630.542413    -79.495458
PG14  17761.274556 -15035.732031 -12334.008919    -93.705480
PG15   -197.555962  24486.248195 -10032.044862   -333.690115
PG16   5296.512847 -16490.026947  19836.301889    -10.563755
PG17 -17140.092387   6250.027824 -18854.317361     -9.617530
PG18   2983.652731 -15951.997590 -21482.507685     12.231961
PG19 -18176.863830  14659.348783 -13046.982244   -367.082334
PG20  21625.340848  11194.647039 -10879.301778    520.720153
PG21  23549.302424   4777.637832  12018.418631   -275.573544
PG22  -7573.959951 -22504.915592 -11711.219222   -614.465294
PG23  -5532.822850 -19459.653143  17302.140725   -201.609024
PG24   3511.393697  15362.217936 -21531.076717    -60.347078
PG25  16978.484406  20457.335365   2287.260974   -700.786182
PG26  12576.398777  -8857.624494  21647.289644     86.397555
PG27  11722.669976 -23558.581743   2131.585141    -42.975452
PG28 -18021.795941  -7199.677350 -17475.110531    760.802299
PG29   8342.708773  14107.176791  20879.488660    301.152871
PG30 -26497.965187   -313.130917   2874.616104    -30.182499
PG31  23871.360778  -8256.671599   8920.993001     68.255914
PG32  17468.900819  -8916.821320 -17825.612728   -290.597169
PJ01 -24244.590572  25476.138397  28308.121463   -223.664862
PJ02 -29789.275232  14356.148737 -21746.672371     -0.816623
PJ03 -22164.055348  34703.591379  -5131.144355      3.114240
PR01  10129.359003  -5749.530411 -22700.452864     37.411277
PR02   1733.421624 -22768.087024 -11285.401065    347.640591
PR03  -6897.222009 -23753.072438   6173.914990    153.515373
PR04 -11514.097814 -10409.273295  20244.383046    289.948780
PR05  -9319.480889   8034.819411  22349.108289     19.159223
PR07   7031.412047  23647.007052  -6534.885357    -55.121606
PR08  11420.823199  11210.582552 -19822.258683     19.720934
PR09  -2231.844939  11019.959912 -22879.592900     47.145656
PR10  14081.629910  13608.441004 -16319.943532     38.897080
PR11  23920.711403   8767.994923    752.850037    -52.355647
PR13   3106.214637 -10409.682419  23063.008457    -18.610237
PR14 -14191.515542 -13680.364910  16207.349906     34.589110
PR15 -23785.888317  -9200.648017    191.954060     99.130263
PR17   -431.974641 -12726.437748 -22094.034600    193.270155
PR18 -14625.865427   -384.267157 -20890.105460     29.161500
PR19 -21117.272395  11669.696009  -8265.612836    -62.282076
PR20 -14906.707684  17679.863417  10827.387863   -364.460495
PR21    939.413643  12326.612973  22314.474156    -23.571485
PR22  16012.440691  -1396.781403  19772.917459    -64.349663
PR23  20655.601210 -14530.023075   3596.088860    200.981627
PR24  13538.614952 -17906.283524 -12120.889957   -175.650097
PR26 -15730.818648  17925.247104   9028.545837     14.007563
EOF
